[{"OBJECT_NAME":"FOX-1A (AO-85)","OBJECT_ID":"2015-058D","EPOCH":"2026-03-09T22:16:13.069920","MEAN_MOTION":14.90358802,"ECCENTRICITY":0.01288837,"INCLINATION":64.7749,"RA_OF_ASC_NODE":227.3018,"ARG_OF_PERICENTER":95.808,"MEAN_ANOMALY":265.7742,"EPHEMERIS_TYPE":0,"CLASSIFICATION_TYPE":"U","NORAD_CAT_ID":40967,"ELEMENT_SET_NO":999,"REV_AT_EPOCH":9877,"BSTAR":0.00043144585,"MEAN_MOTION_DOT":4.759e-5,"MEAN_MOTION_DDOT":0},{"OBJECT_NAME":"TRANSPORTER-15 OBJECT F","OBJECT_ID":"2025-276F","EPOCH":"2026-03-09T17:57:42.210144","MEAN_MOTION":15.19380664,"ECCENTRICITY":0.00054716,"INCLINATION":97.4283,"RA_OF_ASC_NODE":144.0186,"ARG_OF_PERICENTER":0.0521,"MEAN_ANOMALY":0.0713,"EPHEMERIS_TYPE":0,"CLASSIFICATION_TYPE":"U","NORAD_CAT_ID":66671,"ELEMENT_SET_NO":999,"REV_AT_EPOCH":1532,"BSTAR":0.00065501978,"MEAN_MOTION_DOT":0.0001381,"MEAN_MOTION_DDOT":0}]
